[{"OBJECT_NAME":"STARLINK-2701","OBJECT_ID":"2021-044U","EPOCH":"2026-03-09T09:59:31.641216","MEAN_MOTION":15.30223298,"ECCENTRICITY":0.00015126,"INCLINATION":53.159,"RA_OF_ASC_NODE":115.1314,"ARG_OF_PERICENTER":109.2317,"MEAN_ANOMALY":250.8847,"EPHEMERIS_TYPE":0,"CLASSIFICATION_TYPE":"U","NORAD_CAT_ID":48656,"ELEMENT_SET_NO":999,"REV_AT_EPOCH":26378,"BSTAR":0.00040421747,"MEAN_MOTION_DOT":0.0001164,"MEAN_MOTION_DDOT":0},{"OBJECT_NAME":"STARLINK-30494","OBJECT_ID":"2023-151G","EPOCH":"2026-03-09T08:39:06.366240","MEAN_MOTION":15.28417441,"ECCENTRICITY":0.00011553,"INCLINATION":43.0027,"RA_OF_ASC_NODE":192.4566,"ARG_OF_PERICENTER":241.5536,"MEAN_ANOMALY":118.52,"EPHEMERIS_TYPE":0,"CLASSIFICATION_TYPE":"U","NORAD_CAT_ID":57970,"ELEMENT_SET_NO":999,"REV_AT_EPOCH":13740,"BSTAR":-3.569111e-5,"MEAN_MOTION_DOT":-1.272e-5,"MEAN_MOTION_DDOT":0}]
